OBJECT_NAME,OBJECT_ID,EPOCH,MEAN_MOTION,ECCENTRICITY,INCLINATION,RA_OF_ASC_NODE,ARG_OF_PERICENTER,MEAN_ANOMALY,EPHEMERIS_TYPE,CLASSIFICATION_TYPE,NORAD_CAT_ID,ELEMENT_SET_NO,REV_AT_EPOCH,BSTAR,MEAN_MOTION_DOT,MEAN_MOTION_DDOT
SAUDISAT 1C (SO-50),2002-058C,2026-06-24T00:48:02.796480,14.83059331,.00750962,64.5518,107.8036,261.1879,98.0718,0,U,27607,999,26547,.10682067E-3,.757E-5,0
SAUDISAT 2,2004-025F,2026-06-24T05:47:30.187968,14.56687333,.00234449,98.5508,175.4055,275.4526,84.3997,0,U,28371,999,16677,.58170741E-4,.211E-5,0
SAUDISAT 3,2007-012B,2026-06-23T13:59:21.524064,14.71428609,.00140489,98.1456,124.9877,202.3766,157.6829,0,U,31118,999,2868,.38031442E-4,.185E-5,0
PISAT,2016-059B,2026-06-24T05:28:20.871840,14.68993723,.00289698,97.8179,175.3783,180.0170,180.1040,0,U,41784,999,52077,.13584187E-3,.754E-5,0
FLYING LAPTOP,2017-042G,2026-06-24T07:37:38.034048,15.01185182,.00198971,97.4720,330.5773,98.9889,261.3588,0,U,42831,999,48752,.21202642E-3,.2673E-4,0
SALSAT,2020-068K,2026-06-24T06:35:57.895296,15.29885766,.00078015,97.8854,178.7714,277.9982,82.0372,0,U,46495,999,31644,.23162762E-3,.6623E-4,0
