SAUDISAT 1C (SO-50)     
1 27607U 02058C   26175.03336570  .00000757  00000+0  10682-3 0  9993
2 27607  64.5518 107.8036 0075096 261.1879  98.0718 14.83059331265473
SAUDISAT 2              
1 28371U 04025F   26175.24132162  .00000211  00000+0  58171-4 0  9993
2 28371  98.5508 175.4055 0023444 275.4526  84.3997 14.56687333166776
SAUDISAT 3              
1 31118U 07012B   26174.58288801  .00000185  00000+0  38031-4 0  9996
2 31118  98.1456 124.9877 0014048 202.3766 157.6829 14.71428609 28684
PISAT                   
1 41784U 16059B   26175.22801935  .00000754  00000+0  13584-3 0  9995
2 41784  97.8179 175.3783 0028969 180.0170 180.1040 14.68993723520779
FLYING LAPTOP           
1 42831U 17042G   26175.31780132  .00002673  00000+0  21203-3 0  9996
2 42831  97.4720 330.5773 0019897  98.9889 261.3588 15.01185182487523
SALSAT                  
1 46495U 20068K   26175.27497564  .00006623  00000+0  23163-3 0  9993
2 46495  97.8854 178.7714 0007801 277.9982  82.0372 15.29885766316443
